[{"OBJECT_NAME":"STARLINK-31321","OBJECT_ID":"2024-020M","EPOCH":"2026-03-09T21:40:40.314432","MEAN_MOTION":15.30180359,"ECCENTRICITY":0.00011827,"INCLINATION":53.161,"RA_OF_ASC_NODE":321.4395,"ARG_OF_PERICENTER":101.9416,"MEAN_ANOMALY":258.1718,"EPHEMERIS_TYPE":0,"CLASSIFICATION_TYPE":"U","NORAD_CAT_ID":58887,"ELEMENT_SET_NO":999,"REV_AT_EPOCH":11926,"BSTAR":8.8560795e-5,"MEAN_MOTION_DOT":2.263e-5,"MEAN_MOTION_DDOT":0},{"OBJECT_NAME":"FREGAT DEB","OBJECT_ID":"2011-037HS","EPOCH":"2026-03-09T07:41:20.544288","MEAN_MOTION":12.53871844,"ECCENTRICITY":0.12901924,"INCLINATION":51.3513,"RA_OF_ASC_NODE":80.4402,"ARG_OF_PERICENTER":45.7358,"MEAN_ANOMALY":324.2365,"EPHEMERIS_TYPE":0,"CLASSIFICATION_TYPE":"U","NORAD_CAT_ID":46015,"ELEMENT_SET_NO":999,"REV_AT_EPOCH":23949,"BSTAR":0.0078344163,"MEAN_MOTION_DOT":0.00043659,"MEAN_MOTION_DDOT":0}]
